{
  "norad_id": 56926,
  "name": "STARLINK-5746",
  "history": [
    {
      "epoch": "2026-03-28T22:00:01.999584Z",
      "apogee_km": 487.2554886592061,
      "perigee_km": 485.4320079932213,
      "latitude_deg": -32.38230349917819,
      "longitude_deg": 28.19317498567955,
      "height_km": 494.44133245288583,
      "semi_major_axis_km": 6864.480748326214,
      "eccentricity": 0.00013282,
      "inclination_deg": 42.9993,
      "raan_deg": 321.973,
      "arg_perigee_deg": 251.8418,
      "mean_anomaly_deg": 339.561,
      "mean_motion_rev_day": 15.26480374
    },
    {
      "epoch": "2026-03-29T04:00:01.999584Z",
      "apogee_km": 487.1472886131205,
      "perigee_km": 484.88349115493656,
      "latitude_deg": 8.961009355066059,
      "longitude_deg": -115.70372192765744,
      "height_km": 485.24852184806196,
      "semi_major_axis_km": 6864.152389884029,
      "eccentricity": 0.0001649,
      "inclination_deg": 42.9997,
      "raan_deg": 320.5625,
      "arg_perigee_deg": 265.8084,
      "mean_anomaly_deg": 261.0029,
      "mean_motion_rev_day": 15.26589908
    },
    {
      "epoch": "2026-03-30T04:00:01.999584Z",
      "apogee_km": 486.67289377822544,
      "perigee_km": 484.4655258611483,
      "latitude_deg": -43.15368609015382,
      "longitude_deg": -23.551433506278787,
      "height_km": 497.816641504029,
      "semi_major_axis_km": 6863.706209819687,
      "eccentricity": 0.0001608,
      "inclination_deg": 42.9992,
      "raan_deg": 314.9224,
      "arg_perigee_deg": 264.5037,
      "mean_anomaly_deg": 4.8329,
      "mean_motion_rev_day": 15.26738766
    },
    {
      "epoch": "2026-03-30T06:00:02.000160Z",
      "apogee_km": 486.68170117129375,
      "perigee_km": 484.38223479364024,
      "latitude_deg": 5.35998688640144,
      "longitude_deg": 42.54134019104534,
      "height_km": 485.0713727011775,
      "semi_major_axis_km": 6863.668967982467,
      "eccentricity": 0.00016751,
      "inclination_deg": 42.9992,
      "raan_deg": 314.4515,
      "arg_perigee_deg": 262.7411,
      "mean_anomaly_deg": 105.1506,
      "mean_motion_rev_day": 15.26751192
    },
    {
      "epoch": "2026-03-30T14:00:03.000384Z",
      "apogee_km": 486.68996928954675,
      "perigee_km": 484.53790882011435,
      "latitude_deg": 27.374449031675667,
      "longitude_deg": -51.89482733222452,
      "height_km": 486.7083144282411,
      "semi_major_axis_km": 6863.75093905483,
      "eccentricity": 0.00015677,
      "inclination_deg": 42.999,
      "raan_deg": 312.572,
      "arg_perigee_deg": 253.6851,
      "mean_anomaly_deg": 148.5215,
      "mean_motion_rev_day": 15.26723842
    },
    {
      "epoch": "2026-03-30T22:00:00.999936Z",
      "apogee_km": 486.7415014745284,
      "perigee_km": 484.47852408441486,
      "latitude_deg": 41.65647628390503,
      "longitude_deg": -136.03460622970766,
      "height_km": 489.5569428588425,
      "semi_major_axis_km": 6863.747012779471,
      "eccentricity": 0.00016485,
      "inclination_deg": 42.999,
      "raan_deg": 310.6937,
      "arg_perigee_deg": 262.9795,
      "mean_anomaly_deg": 173.3414,
      "mean_motion_rev_day": 15.26725152
    },
    {
      "epoch": "2026-03-31T20:00:01.999008Z",
      "apogee_km": 486.63545640867414,
      "perigee_km": 484.52692218092307,
      "latitude_deg": 42.43060149265357,
      "longitude_deg": -106.55791792002712,
      "height_km": 489.61718116472355,
      "semi_major_axis_km": 6863.718189294798,
      "eccentricity": 0.0001536,
      "inclination_deg": 42.9988,
      "raan_deg": 305.5232,
      "arg_perigee_deg": 268.5339,
      "mean_anomaly_deg": 171.9887,
      "mean_motion_rev_day": 15.26734769
    },
    {
      "epoch": "2026-04-01T20:46:16.797216Z",
      "apogee_km": 486.5218773141996,
      "perigee_km": 484.4833763450306,
      "latitude_deg": 5.115876237044987e-06,
      "longitude_deg": 157.90875700299617,
      "height_km": 485.56416769144295,
      "semi_major_axis_km": 6863.639626829615,
      "eccentricity": 0.0001485,
      "inclination_deg": 42.9972,
      "raan_deg": 299.7011,
      "arg_perigee_deg": 253.7574,
      "mean_anomaly_deg": 106.3114,
      "mean_motion_rev_day": 15.26760982
    },
    {
      "epoch": "2026-04-02T14:02:34.886400Z",
      "apogee_km": 486.6730764117674,
      "perigee_km": 484.4776493753725,
      "latitude_deg": -3.9760670843408654e-05,
      "longitude_deg": -105.93768504423319,
      "height_km": 485.4370853541723,
      "semi_major_axis_km": 6863.71236289357,
      "eccentricity": 0.00015993,
      "inclination_deg": 43.0,
      "raan_deg": 295.6394,
      "arg_perigee_deg": 265.5701,
      "mean_anomaly_deg": 94.4967,
      "mean_motion_rev_day": 15.26736713
    }
  ]
}